start=new Date('2022-06-10T00:00:00.000Z').valueOf();
sats=[{"MEAN_MOTION_DDOT":"0.0000000000000","MEAN_MOTION_DOT":"0.00000283","MEAN_ELEMENT_THEORY":"SGP4","FILE":"3488214","TLE_LINE1":"1 45586U 20025BH  22160.21170564  .00000283  00000-0  37934-4 0  9997","CLASSIFICATION_TYPE":"U","TIME_SYSTEM":"UTC","EPOCH":"2022-06-09T05:04:51.367296","ECCENTRICITY":"0.00020000","SITE":"AFETR","CENTER_NAME":"EARTH","OBJECT_NAME":"STARLINK-1347","APOAPSIS":"548.596","MEAN_ANOMALY":"292.8707","SEMIMAJOR_AXIS":"6925.346","RA_OF_ASC_NODE":"104.4586","PERIAPSIS":"545.826","DECAY_DATE":null,"MEAN_MOTION":"15.06400850","GP_ID":"205734528","COUNTRY_CODE":"US","RCS_SIZE":"LARGE","ELEMENT_SET_NO":"999","PERIOD":"95.592","OBJECT_TYPE":"PAYLOAD","REV_AT_EPOCH":"11908","INCLINATION":"53.0563","TLE_LINE2":"2 45586  53.0563 104.4586 0002000  67.2493 292.8707 15.06400850119086","NORAD_CAT_ID":"45586","REF_FRAME":"TEME","LAUNCH_DATE":"2020-04-22","BSTAR":"0.00003793400000","EPHEMERIS_TYPE":"0","OBJECT_ID":"2020-025BH","ARG_OF_PERICENTER":"67.2493"},{"ARG_OF_PERICENTER":"66.6386","EPHEMERIS_TYPE":"0","BSTAR":"-0.00006095100000","OBJECT_ID":"2020-025BJ","LAUNCH_DATE":"2020-04-22","RCS_SIZE":"LARGE","GP_ID":"205733783","COUNTRY_CODE":"US","MEAN_MOTION":"15.06390543","DECAY_DATE":null,"PERIAPSIS":"545.631","RA_OF_ASC_NODE":"104.2774","REF_FRAME":"TEME","NORAD_CAT_ID":"45587","TLE_LINE2":"2 45587  53.0566 104.2774 0002327  66.6386 293.4847 15.06390543119105","REV_AT_EPOCH":"11910","INCLINATION":"53.0566","OBJECT_TYPE":"PAYLOAD","PERIOD":"95.593","ELEMENT_SET_NO":"999","ECCENTRICITY":"0.00023270","SITE":"AFETR","EPOCH":"2022-06-09T05:57:56.216448","TIME_SYSTEM":"UTC","SEMIMAJOR_AXIS":"6925.378","MEAN_ANOMALY":"293.4847","APOAPSIS":"548.854","OBJECT_NAME":"STARLINK-1349","CENTER_NAME":"EARTH","MEAN_MOTION_DOT":"-0.00001189","MEAN_MOTION_DDOT":"0.0000000000000","CLASSIFICATION_TYPE":"U","TLE_LINE1":"1 45587U 20025BJ  22160.24856732 -.00001189  00000-0 -60951-4 0  9992","FILE":"3488214","MEAN_ELEMENT_THEORY":"SGP4"},{"TLE_LINE1":"1 45588U 20025BK  22160.82357231  .00000279  00000-0  37633-4 0  9995","CLASSIFICATION_TYPE":"U","MEAN_ELEMENT_THEORY":"SGP4","FILE":"3489040","MEAN_MOTION_DOT":"0.00000279","MEAN_MOTION_DDOT":"0.0000000000000","SEMIMAJOR_AXIS":"6925.363","CENTER_NAME":"EARTH","OBJECT_NAME":"STARLINK-1360","MEAN_ANOMALY":"286.1578","APOAPSIS":"548.546","EPOCH":"2022-06-09T19:45:56.647584","ECCENTRICITY":"0.00019030","SITE":"AFETR","TIME_SYSTEM":"UTC","REV_AT_EPOCH":"11918","INCLINATION":"53.0546","TLE_LINE2":"2 45588  53.0546 101.7090 0001903  73.9620 286.1578 15.06395205119186","NORAD_CAT_ID":"45588","REF_FRAME":"TEME","ELEMENT_SET_NO":"999","PERIOD":"95.592","OBJECT_TYPE":"PAYLOAD","COUNTRY_CODE":"US","GP_ID":"205779456","MEAN_MOTION":"15.06395205","RCS_SIZE":"LARGE","RA_OF_ASC_NODE":"101.7090","DECAY_DATE":null,"PERIAPSIS":"545.910","BSTAR":"0.00003763300000","EPHEMERIS_TYPE":"0","OBJECT_ID":"2020-025BK","ARG_OF_PERICENTER":"73.9620","LAUNCH_DATE":"2020-04-22"},{"REV_AT_EPOCH":"11918","INCLINATION":"53.0561","TLE_LINE2":"2 45589  53.0561 101.7162 0002336  68.0573 292.0664 15.06396918119181","NORAD_CAT_ID":"45589","REF_FRAME":"TEME","ELEMENT_SET_NO":"999","PERIOD":"95.592","OBJECT_TYPE":"PAYLOAD","GP_ID":"205779206","MEAN_MOTION":"15.06396918","COUNTRY_CODE":"US","RCS_SIZE":"LARGE","RA_OF_ASC_NODE":"101.7162","DECAY_DATE":null,"PERIAPSIS":"545.605","OBJECT_ID":"2020-025BL","BSTAR":"0.00003915100000","EPHEMERIS_TYPE":"0","ARG_OF_PERICENTER":"68.0573","LAUNCH_DATE":"2020-04-22","TLE_LINE1":"1 45589U 20025BL  22160.81988752  .00000301  00000-0  39151-4 0  9996","CLASSIFICATION_TYPE":"U","FILE":"3489040","MEAN_ELEMENT_THEORY":"SGP4","MEAN_MOTION_DOT":"0.00000301","MEAN_MOTION_DDOT":"0.0000000000000","SEMIMAJOR_AXIS":"6925.358","CENTER_NAME":"EARTH","OBJECT_NAME":"STARLINK-1364","APOAPSIS":"548.841","MEAN_ANOMALY":"292.0664","EPOCH":"2022-06-09T19:40:38.281728","ECCENTRICITY":"0.00023360","SITE":"AFETR","TIME_SYSTEM":"UTC"},{"MEAN_MOTION_DDOT":"0.0000000000000","MEAN_MOTION_DOT":"-0.00000538","MEAN_ELEMENT_THEORY":"SGP4","FILE":"3489040","TLE_LINE1":"1 45590U 20025BM  22160.63651094 -.00000538  00000-0 -17174-4 0  9999","CLASSIFICATION_TYPE":"U","TIME_SYSTEM":"UTC","EPOCH":"2022-06-09T15:16:34.545216","SITE":"AFETR","ECCENTRICITY":"0.00020720","CENTER_NAME":"EARTH","OBJECT_NAME":"STARLINK-1365","APOAPSIS":"548.640","MEAN_ANOMALY":"307.5709","SEMIMAJOR_AXIS":"6925.340","RA_OF_ASC_NODE":"132.5475","DECAY_DATE":null,"PERIAPSIS":"545.770","COUNTRY_CODE":"US","GP_ID":"205777954","MEAN_MOTION":"15.06402855","RCS_SIZE":"LARGE","ELEMENT_SET_NO":"999","PERIOD":"95.592","OBJECT_TYPE":"PAYLOAD","INCLINATION":"53.0552","REV_AT_EPOCH":"11875","TLE_LINE2":"2 45590  53.0552 132.5475 0002072  52.5468 307.5709 15.06402855118752","REF_FRAME":"TEME","NORAD_CAT_ID":"45590","LAUNCH_DATE":"2020-04-22","EPHEMERIS_TYPE":"0","BSTAR":"-0.00001717400000","OBJECT_ID":"2020-025BM","ARG_OF_PERICENTER":"52.5468"},{"EPHEMERIS_TYPE":"0","BSTAR":"-0.00005161500000","OBJECT_ID":"2020-035B","ARG_OF_PERICENTER":"58.5359","LAUNCH_DATE":"2020-06-04","MEAN_MOTION":"15.06398644","GP_ID":"205734290","COUNTRY_CODE":"US","RCS_SIZE":"LARGE","DECAY_DATE":null,"PERIAPSIS":"546.091","RA_OF_ASC_NODE":"92.9455","TLE_LINE2":"2 45658  53.0544  92.9455 0001627  58.5359 301.5789 15.06398644112379","REF_FRAME":"TEME","NORAD_CAT_ID":"45658","REV_AT_EPOCH":"11237","INCLINATION":"53.0544","PERIOD":"95.592","OBJECT_TYPE":"PAYLOAD","ELEMENT_SET_NO":"999","ECCENTRICITY":"0.00016270","SITE":"AFETR","EPOCH":"2022-06-09T13:03:52.916544","TIME_SYSTEM":"UTC","SEMIMAJOR_AXIS":"6925.353","APOAPSIS":"548.344","MEAN_ANOMALY":"301.5789","CENTER_NAME":"EARTH","OBJECT_NAME":"STARLINK-1441","MEAN_MOTION_DOT":"-0.00001050","MEAN_MOTION_DDOT":"0.0000000000000","CLASSIFICATION_TYPE":"U","TLE_LINE1":"1 45658U 20035B   22160.54436246 -.00001050  00000-0 -51615-4 0  9993","MEAN_ELEMENT_THEORY":"SGP4","FILE":"3488214"},{"LAUNCH_DATE":"2020-06-04","ARG_OF_PERICENTER":"73.4342","EPHEMERIS_TYPE":"0","BSTAR":"-0.00003615500000","OBJECT_ID":"2020-035C","DECAY_DATE":null,"PERIAPSIS":"546.082","RA_OF_ASC_NODE":"92.9491","RCS_SIZE":"LARGE","COUNTRY_CODE":"US","GP_ID":"205750556","MEAN_MOTION":"15.06393984","OBJECT_TYPE":"PAYLOAD","PERIOD":"95.593","ELEMENT_SET_NO":"999","REF_FRAME":"TEME","NORAD_CAT_ID":"45659","TLE_LINE2":"2 45659  53.0560  92.9491 0001661  73.4342 286.6830 15.06393984111960","INCLINATION":"53.0560","REV_AT_EPOCH":"11196","TIME_SYSTEM":"UTC","SITE":"AFETR","ECCENTRICITY":"0.00016610","EPOCH":"2022-06-09T13:07:50.020608","MEAN_ANOMALY":"286.6830","APOAPSIS":"548.382","OBJECT_NAME":"STARLINK-1442","CENTER_NAME":"EARTH","SEMIMAJOR_AXIS":"6925.367","MEAN_MOTION_DDOT":"0.0000000000000","MEAN_MOTION_DOT":"-0.00000820","MEAN_ELEMENT_THEORY":"SGP4","FILE":"3488675","CLASSIFICATION_TYPE":"U","TLE_LINE1":"1 45659U 20035C   22160.54710672 -.00000820  00000-0 -36155-4 0  9998"},{"RA_OF_ASC_NODE":"94.3966","PERIAPSIS":"545.710","DECAY_DATE":null,"GP_ID":"205751337","MEAN_MOTION":"15.06396011","COUNTRY_CODE":"US","RCS_SIZE":"LARGE","ELEMENT_SET_NO":"999","PERIOD":"95.592","OBJECT_TYPE":"PAYLOAD","REV_AT_EPOCH":"11191","INCLINATION":"53.0565","TLE_LINE2":"2 45660  53.0565  94.3966 0002189  56.5703 303.5495 15.06396011111914","REF_FRAME":"TEME","NORAD_CAT_ID":"45660","LAUNCH_DATE":"2020-06-04","BSTAR":"-0.00002076700000","EPHEMERIS_TYPE":"0","OBJECT_ID":"2020-035D","ARG_OF_PERICENTER":"56.5703","MEAN_MOTION_DDOT":"0.0000000000000","MEAN_MOTION_DOT":"-0.00000591","FILE":"3488683","MEAN_ELEMENT_THEORY":"SGP4","TLE_LINE1":"1 45660U 20035D   22160.22369043 -.00000591  00000-0 -20767-4 0  9994","CLASSIFICATION_TYPE":"U","TIME_SYSTEM":"UTC","EPOCH":"2022-06-09T05:22:06.853152","SITE":"AFETR","ECCENTRICITY":"0.00021890","CENTER_NAME":"EARTH","OBJECT_NAME":"STARLINK-1443","APOAPSIS":"548.742","MEAN_ANOMALY":"303.5495","SEMIMAJOR_AXIS":"6925.361"},{"MEAN_MOTION_DDOT":"0.0000000000000","MEAN_MOTION_DOT":"-0.00001322","MEAN_ELEMENT_THEORY":"SGP4","FILE":"3488214","TLE_LINE1":"1 45661U 20035E   22160.24211817 -.00001322  00000-0 -69897-4 0  9992","CLASSIFICATION_TYPE":"U","TIME_SYSTEM":"UTC","EPOCH":"2022-06-09T05:48:39.009888","SITE":"AFETR","ECCENTRICITY":"0.00017190","OBJECT_NAME":"STARLINK-1444","CENTER_NAME":"EARTH","APOAPSIS":"548.425","MEAN_ANOMALY":"306.4666","SEMIMAJOR_AXIS":"6925.369","RA_OF_ASC_NODE":"94.3089","DECAY_DATE":null,"PERIAPSIS":"546.044","RCS_SIZE":"LARGE","COUNTRY_CODE":"US","GP_ID":"205733539","MEAN_MOTION":"15.06393296","ELEMENT_SET_NO":"999","OBJECT_TYPE":"PAYLOAD","PERIOD":"95.593","INCLINATION":"53.0560","REV_AT_EPOCH":"11232","REF_FRAME":"TEME","NORAD_CAT_ID":"45661","TLE_LINE2":"2 45661  53.0560  94.3089 0001719  53.6481 306.4666 15.06393296112325","LAUNCH_DATE":"2020-06-04","ARG_OF_PERICENTER":"53.6481","BSTAR":"-0.00006989700000","OBJECT_ID":"2020-035E","EPHEMERIS_TYPE":"0"},{"LAUNCH_DATE":"2020-06-04","ARG_OF_PERICENTER":"54.2328","EPHEMERIS_TYPE":"0","BSTAR":"0.00004375100000","OBJECT_ID":"2020-035F","PERIAPSIS":"546.036","DECAY_DATE":null,"RA_OF_ASC_NODE":"93.0377","RCS_SIZE":"LARGE","MEAN_MOTION":"15.06391125","GP_ID":"205734790","COUNTRY_CODE":"US","OBJECT_TYPE":"PAYLOAD","PERIOD":"95.593","ELEMENT_SET_NO":"999","REF_FRAME":"TEME","NORAD_CAT_ID":"45662","TLE_LINE2":"2 45662  53.0555  93.0377 0001740  54.2328 305.8823 15.06391125112368","INCLINATION":"53.0555","REV_AT_EPOCH":"11236","TIME_SYSTEM":"UTC","ECCENTRICITY":"0.00017400","SITE":"AFETR","EPOCH":"2022-06-09T12:32:02.615136","APOAPSIS":"548.446","MEAN_ANOMALY":"305.8823","OBJECT_NAME":"STARLINK-1445","CENTER_NAME":"EARTH","SEMIMAJOR_AXIS":"6925.376","MEAN_MOTION_DDOT":"0.0000000000000","MEAN_MOTION_DOT":"0.00000370","FILE":"3488214","MEAN_ELEMENT_THEORY":"SGP4","CLASSIFICATION_TYPE":"U","TLE_LINE1":"1 45662U 20035F   22160.52225249  .00000370  00000-0  43751-4 0  9999"}];
